{
  "norad_id": 68732,
  "name": "STARLINK-37167",
  "history": [
    {
      "epoch": "2026-04-23T13:16:31.706400Z",
      "apogee_km": 328.2519172150405,
      "perigee_km": 326.6264855438267,
      "latitude_deg": 7.449178870683698e-05,
      "longitude_deg": -75.05814521582931,
      "height_km": 331.14025864126467,
      "semi_major_axis_km": 6705.576201379434,
      "eccentricity": 0.0001212,
      "inclination_deg": 97.2888,
      "raan_deg": 335.6727,
      "arg_perigee_deg": 130.361,
      "mean_anomaly_deg": 229.7765,
      "mean_motion_rev_day": 15.81060937
    },
    {
      "epoch": "2026-04-25T20:00:01.000224Z",
      "apogee_km": 329.17019280943714,
      "perigee_km": 327.27363450865414,
      "latitude_deg": 7.6584101451682765,
      "longitude_deg": -176.74505633108404,
      "height_km": 330.87071860129413,
      "semi_major_axis_km": 6706.358913659045,
      "eccentricity": 0.0001414,
      "inclination_deg": 97.2857,
      "raan_deg": 338.0848,
      "arg_perigee_deg": 106.571,
      "mean_anomaly_deg": 261.2415,
      "mean_motion_rev_day": 15.80784152
    },
    {
      "epoch": "2026-04-26T00:00:02.999808Z",
      "apogee_km": 329.3366600619993,
      "perigee_km": 327.2514965111386,
      "latitude_deg": -55.36853390767876,
      "longitude_deg": -66.36821196615436,
      "height_km": 350.47943203446783,
      "semi_major_axis_km": 6706.431078286569,
      "eccentricity": 0.00015546,
      "inclination_deg": 97.2856,
      "raan_deg": 338.2616,
      "arg_perigee_deg": 108.3991,
      "mean_anomaly_deg": 127.3846,
      "mean_motion_rev_day": 15.80758637
    },
    {
      "epoch": "2026-04-27T11:28:04.837728Z",
      "apogee_km": 328.4956171656877,
      "perigee_km": 327.3810674437973,
      "latitude_deg": -6.080893633906731e-05,
      "longitude_deg": -47.66192603338348,
      "height_km": 330.9578501785934,
      "semi_major_axis_km": 6706.075342304743,
      "eccentricity": 8.31e-05,
      "inclination_deg": 97.2862,
      "raan_deg": 339.8253,
      "arg_perigee_deg": 73.8366,
      "mean_anomaly_deg": 286.2993,
      "mean_motion_rev_day": 15.8088442
    },
    {
      "epoch": "2026-04-28T14:48:50.853600Z",
      "apogee_km": 328.7130762727311,
      "perigee_km": 327.0821686525487,
      "latitude_deg": 2.145114388737455e-05,
      "longitude_deg": -97.77093348294589,
      "height_km": 331.3051037604083,
      "semi_major_axis_km": 6706.03462246264,
      "eccentricity": 0.0001216,
      "inclination_deg": 97.2855,
      "raan_deg": 341.0311,
      "arg_perigee_deg": 106.6256,
      "mean_anomaly_deg": 253.5146,
      "mean_motion_rev_day": 15.80898819
    },
    {
      "epoch": "2026-04-29T19:40:46.018848Z",
      "apogee_km": 328.50300038465684,
      "perigee_km": 327.0759792276276,
      "latitude_deg": -1.653242916059758e-05,
      "longitude_deg": -170.66384009456064,
      "height_km": 330.8745315252697,
      "semi_major_axis_km": 6705.926489806142,
      "eccentricity": 0.0001064,
      "inclination_deg": 97.2842,
      "raan_deg": 342.3035,
      "arg_perigee_deg": 82.8084,
      "mean_anomaly_deg": 277.3305,
      "mean_motion_rev_day": 15.80937057
    },
    {
      "epoch": "2026-04-30T13:54:36.551808Z",
      "apogee_km": 328.67085285098165,
      "perigee_km": 327.10204572525436,
      "latitude_deg": 1.2781984312112835e-05,
      "longitude_deg": -84.06940643863152,
      "height_km": 330.9499075351825,
      "semi_major_axis_km": 6706.023449288117,
      "eccentricity": 0.00011697,
      "inclination_deg": 97.2839,
      "raan_deg": 343.1072,
      "arg_perigee_deg": 81.8875,
      "mean_anomaly_deg": 278.2526,
      "mean_motion_rev_day": 15.8090277
    }
  ]
}